NORAD_CAT_ID,OBJECT_NAME,OBJECT_TYPE,EPOCH,MEAN_MOTION,ECCENTRICITY,INCLINATION,RA_OF_ASC_NODE,ARG_OF_PERICENTER,MEAN_ANOMALY,BSTAR,MEAN_MOTION_DOT,MEAN_MOTION_DDOT,TLE_LINE0,TLE_LINE1,TLE_LINE2,SEMIMAJOR_AXIS,PERIOD,APOGEE,PERIGEE,DECAYED
52576.0,STARLINK-3932,PAYLOAD,2023-06-03 23:33:15,15.08847645,0.0001074,53.2176,331.8767,85.0485,275.063,0.00012504,1.703e-05,0.0,0 STARLINK-3932,1 52576U 22051AS  23154.98142464  .00001703  00000-0  12504-3 0  9994,2 52576  53.2176 331.8767 0001074  85.0485 275.0630 15.08847645 59227,6917.857,95.437,540.465,538.979,0.0
52576.0,STARLINK-3932,PAYLOAD,2023-06-04 13:51:44,15.08834846,0.0001149,53.2171,329.2007,97.2733,262.839,2.8615e-05,1.68e-06,0.0,0 STARLINK-3932,1 52576U 22051AS  23155.57759728  .00000168  00000-0  28615-4 0  9992,2 52576  53.2171 329.2007 0001149  97.2733 262.8390 15.08834846 59242,6917.896,95.438,540.556,538.966,0.0
52576.0,STARLINK-3932,PAYLOAD,2023-06-04 18:37:53,15.08840938,0.0001007,53.2173,328.3092,88.8426,271.2682,9.1478e-05,1.168e-05,0.0,0 STARLINK-3932,1 52576U 22051AS  23155.77631306  .00001168  00000-0  91478-4 0  9993,2 52576  53.2173 328.3092 0001007  88.8426 271.2682 15.08840938 59344,6917.878,95.437,540.439,539.046,0.0
52576.0,STARLINK-3932,PAYLOAD,2023-06-05 10:31:44,15.08840166,0.0001082,53.2174,325.3367,95.3416,264.77,7.4542e-05,8.99e-06,0.0,0 STARLINK-3932,1 52576U 22051AS  23156.43871520  .00000899  00000-0  74542-4 0  9994,2 52576  53.2174 325.3367 0001082  95.3416 264.7700 15.08840166 59376,6917.88,95.438,540.493,538.996,0.0
52576.0,STARLINK-3932,PAYLOAD,2023-06-05 16:53:17,15.08839725,0.0001105,53.2173,324.1468,92.3143,267.7976,3.4442e-05,2.6e-06,0.0,0 STARLINK-3932,1 52576U 22051AS  23156.70367381  .00000260  00000-0  34442-4 0  9996,2 52576  53.2173 324.1468 0001105  92.3143 267.7976 15.08839725 59416,6917.881,95.438,540.511,538.982,0.0
52576.0,STARLINK-3932,PAYLOAD,2023-06-06 13:33:18,15.08837676,0.0001112,53.2178,320.2813,90.7768,269.3352,3.7082e-05,3.02e-06,0.0,0 STARLINK-3932,1 52576U 22051AS  23157.56479641  .00000302  00000-0  37082-4 0  9994,2 52576  53.2178 320.2813 0001112  90.7768 269.3352 15.08837676 59548,6917.887,95.438,540.522,538.983,0.0
52576.0,STARLINK-3932,PAYLOAD,2023-06-06 15:08:41,15.08838685,0.0001121,53.2181,319.9841,90.337,269.775,4.925e-05,4.96e-06,0.0,0 STARLINK-3932,1 52576U 22051AS  23157.63103596  .00000496  00000-0  49250-4 0  9999,2 52576  53.2181 319.9841 0001121  90.3370 269.7750 15.08838685 59629,6917.884,95.438,540.525,538.974,0.0
52576.0,STARLINK-3932,PAYLOAD,2023-06-07 10:13:19,15.08838315,0.0001309,53.2174,316.4152,86.5886,273.5256,5.0681e-05,5.19e-06,0.0,0 STARLINK-3932,1 52576U 22051AS  23158.42592008  .00000519  00000-0  50681-4 0  9993,2 52576  53.2174 316.4152 0001309  86.5886 273.5256 15.08838315 59674,6917.886,95.438,540.656,538.845,0.0
52576.0,STARLINK-3932,PAYLOAD,2023-06-07 18:10:14,15.08840518,0.0001107,53.2175,314.9287,75.319,284.7925,7.7202e-05,9.41e-06,0.0,0 STARLINK-3932,1 52576U 22051AS  23158.75711785  .00000941  00000-0  77202-4 0  9991,2 52576  53.2175 314.9287 0001107  75.3190 284.7925 15.08840518 59795,6917.879,95.438,540.51,538.978,0.0
52576.0,STARLINK-3932,PAYLOAD,2023-06-07 19:45:37,15.08843894,0.0001084,53.2175,314.631,78.4763,281.6351,0.00010143,1.327e-05,0.0,0 STARLINK-3932,1 52576U 22051AS  23158.82335495  .00001327  00000-0  10143-3 0  9998,2 52576  53.2175 314.6310 0001084  78.4763 281.6351 15.08843894 59736,6917.868,95.437,540.483,538.984,0.0
52576.0,STARLINK-3932,PAYLOAD,2023-06-08 10:04:06,15.08831441,7.87e-05,53.2176,311.9545,81.2597,278.8484,1.2991e-05,-8.1e-07,0.0,0 STARLINK-3932,1 52576U 22051AS  23159.41952541 -.00000081  00000-0  12991-4 0  9992,2 52576  53.2176 311.9545 0000787  81.2597 278.8484 15.08831441 59890,6917.907,95.438,540.316,539.227,0.0
52576.0,STARLINK-3932,PAYLOAD,2023-06-08 13:14:52,15.08838446,0.0001118,53.2172,311.3607,74.2544,285.8572,7.0935e-05,8.41e-06,0.0,0 STARLINK-3932,1 52576U 22051AS  23159.55200083  .00000841  00000-0  70935-4 0  9999,2 52576  53.2172 311.3607 0001118  74.2544 285.8572 15.08838446 59845,6917.885,95.438,540.524,538.977,0.0
52576.0,STARLINK-3932,PAYLOAD,2023-06-09 09:54:53,15.0884147,9.51e-05,53.2164,307.4947,72.2093,287.9003,0.00015883,2.241e-05,0.0,0 STARLINK-3932,1 52576U 22051AS  23160.41311976  .00002241  00000-0  15883-3 0  9996,2 52576  53.2164 307.4947 0000951  72.2093 287.9003 15.08841470 59977,6917.876,95.437,540.399,539.083,0.0
52576.0,STARLINK-3932,PAYLOAD,2023-06-09 16:16:25,15.08845033,9.42e-05,53.2163,306.3052,72.2689,287.8406,0.00020128,2.917e-05,0.0,0 STARLINK-3932,1 52576U 22051AS  23160.67807813  .00002917  00000-0  20128-3 0  9992,2 52576  53.2163 306.3052 0000942  72.2689 287.8406 15.08845033 60081,6917.865,95.437,540.382,539.078,0.0
52576.0,STARLINK-3932,PAYLOAD,2023-06-10 08:10:16,15.08857019,0.0001092,53.2159,303.3304,61.8368,298.2734,-0.00039743,-6.61e-05,0.0,0 STARLINK-3932,1 52576U 22051AS  23161.34046934 -.00006610  00000-0 -39743-3 0  9995,2 52576  53.2159 303.3304 0001092  61.8368 298.2734 15.08857019 60119,6917.828,95.436,540.449,538.938,0.0
52576.0,STARLINK-3932,PAYLOAD,2023-06-10 17:42:36,15.08844105,0.000105,53.216,301.5458,83.0169,277.0943,0.00013112,1.8e-05,0.0,0 STARLINK-3932,1 52576U 22051AS  23161.73791833  .00001800  00000-0  13112-3 0  9999,2 52576  53.2160 301.5458 0001050  83.0169 277.0943 15.08844105 60175,6917.868,95.437,540.459,539.006,0.0
52576.0,STARLINK-3932,PAYLOAD,2023-06-11 15:58:00,15.08841978,0.0001121,53.2167,297.3823,85.4049,274.7072,5.2851e-05,5.53e-06,0.0,0 STARLINK-3932,1 52576U 22051AS  23162.66527859  .00000553  00000-0  52851-4 0  9995,2 52576  53.2167 297.3823 0001121  85.4049 274.7072 15.08841978 60387,6917.874,95.437,540.515,538.964,0.0
52576.0,STARLINK-3932,PAYLOAD,2023-06-11 17:33:23,15.08846507,0.0001085,53.217,297.0858,86.9397,273.1719,0.00011643,1.566e-05,0.0,0 STARLINK-3932,1 52576U 22051AS  23162.73151651  .00001566  00000-0  11643-3 0  9994,2 52576  53.2170 297.0858 0001085  86.9397 273.1719 15.08846507 60325,6917.86,95.437,540.476,538.975,0.0
52576.0,STARLINK-3932,PAYLOAD,2023-06-12 07:51:51,15.08841107,0.0001137,53.217,294.4145,106.9843,253.1274,9.083e-05,1.158e-05,0.0,0 STARLINK-3932,1 52576U 22051AS  23163.32767877  .00001158  00000-0  90830-4 0  9996,2 52576  53.2170 294.4145 0001137 106.9843 253.1274 15.08841107 60417,6917.877,95.437,540.529,538.955,0.0
52576.0,STARLINK-3932,PAYLOAD,2023-06-12 15:48:47,15.08841565,0.0001138,53.217,292.9277,107.3173,252.7944,7.7596e-05,9.47e-06,0.0,0 STARLINK-3932,1 52576U 22051AS  23163.65887812  .00000947  00000-0  77596-4 0  9993,2 52576  53.2170 292.9277 0001138 107.3173 252.7944 15.08841565 60460,6917.876,95.437,540.528,538.953,0.0
52576.0,STARLINK-3932,PAYLOAD,2023-06-13 01:21:06,15.08838616,0.0001148,53.2174,291.1413,117.0719,243.039,4.728e-05,4.65e-06,0.0,0 STARLINK-3932,1 52576U 22051AS  23164.05632351  .00000465  00000-0  47280-4 0  9996,2 52576  53.2174 291.1413 0001148 117.0719 243.0390 15.08838616 60597,6917.885,95.438,540.544,538.955,0.0
52576.0,STARLINK-3932,PAYLOAD,2023-06-13 09:18:02,15.08838901,0.0001117,53.2181,289.6538,99.8088,260.303,1.5496e-05,-4.1e-07,0.0,0 STARLINK-3932,1 52576U 22051AS  23164.38752608 -.00000041  00000-0  15496-4 0  9995,2 52576  53.2181 289.6538 0001117  99.8088 260.3030 15.08838901 60575,6917.884,95.438,540.521,538.976,0.0
52576.0,STARLINK-3932,PAYLOAD,2023-06-14 07:33:25,15.08841238,0.0001422,53.2187,285.491,89.1281,270.9874,9.5925e-05,1.239e-05,0.0,0 STARLINK-3932,1 52576U 22051AS  23165.31488410  .00001239  00000-0  95925-4 0  9990,2 52576  53.2187 285.4910 0001422  89.1281 270.9874 15.08841238 60788,6917.877,95.437,540.725,538.758,0.0
52576.0,STARLINK-3932,PAYLOAD,2023-06-15 13:45:44,15.08855528,0.0001114,53.218,279.841,82.3348,277.777,0.00015914,2.247e-05,0.0,0 STARLINK-3932,1 52576U 22051AS  23166.57343077  .00002247  00000-0  15914-3 0  9997,2 52576  53.2180 279.8410 0001114  82.3348 277.7770 15.08855528 60901,6917.833,95.437,540.469,538.927,0.0
52576.0,STARLINK-3932,PAYLOAD,2023-06-15 16:56:30,15.08861049,0.0001086,53.2173,279.2456,83.75,276.3616,0.00020536,2.984e-05,0.0,0 STARLINK-3932,1 52576U 22051AS  23166.70590503  .00002984  00000-0  20536-3 0  9994,2 52576  53.2173 279.2456 0001086  83.7500 276.3616 15.08861049 60998,6917.816,95.436,540.432,538.93,0.0
52576.0,STARLINK-3932,PAYLOAD,2023-06-16 00:53:26,15.08845129,9.38e-05,53.2175,277.7578,90.654,269.4559,5.954e-05,6.6e-06,0.0,0 STARLINK-3932,1 52576U 22051AS  23167.03711618  .00000660  00000-0  59540-4 0  9990,2 52576  53.2175 277.7578 0000938  90.6540 269.4559 15.08845129 61041,6917.865,95.437,540.379,539.081,0.0
52576.0,STARLINK-3932,PAYLOAD,2023-06-16 13:36:31,15.08847241,0.0001115,53.2169,275.3794,97.856,262.2559,0.00012547,1.71e-05,0.0,0 STARLINK-3932,1 52576U 22051AS  23167.56703363  .00001710  00000-0  12547-3 0  9998,2 52576  53.2169 275.3794 0001115  97.8560 262.2559 15.08847241 61056,6917.858,95.437,540.495,538.952,0.0
52576.0,STARLINK-3932,PAYLOAD,2023-06-16 16:47:17,15.08853871,0.0001155,53.217,274.7832,101.1377,258.9745,0.00016713,2.374e-05,0.0,0 STARLINK-3932,1 52576U 22051AS  23167.69950959  .00002374  00000-0  16713-3 0  9993,2 52576  53.2170 274.7832 0001155 101.1377 258.9745 15.08853871 61070,6917.838,95.437,540.502,538.904,0.0
52576.0,STARLINK-3932,PAYLOAD,2023-06-17 00:44:14,15.08829655,0.0001322,53.2165,273.2969,82.103,278.0112,-0.00021229,-3.664e-05,0.0,0 STARLINK-3932,1 52576U 22051AS  23168.03072083 -.00003664  00000-0 -21229-3 0  9998,2 52576  53.2165 273.2969 0001322  82.1030 278.0112 15.08829655 61196,6917.912,95.438,540.692,538.862,0.0
52576.0,STARLINK-3932,PAYLOAD,2023-06-17 13:27:19,15.08824793,0.0001374,53.2166,270.918,83.7726,276.3423,-0.00014774,-2.637e-05,0.0,0 STARLINK-3932,1 52576U 22051AS  23168.56064803 -.00002637  00000-0 -14774-3 0  9993,2 52576  53.2166 270.9180 0001374  83.7726 276.3423 15.08824793 61208,6917.927,95.439,540.742,538.841,0.0
